{
  "norad_id": 63043,
  "name": "STARLINK-32827",
  "history": [
    {
      "epoch": "2026-03-28T15:36:50.892192Z",
      "apogee_km": 476.16157677377123,
      "perigee_km": 474.1617842188034,
      "latitude_deg": 4.411016808241039e-05,
      "longitude_deg": 122.99639642515955,
      "height_km": 475.8074514748647,
      "semi_major_axis_km": 6853.2986804962875,
      "eccentricity": 0.0001459,
      "inclination_deg": 53.1604,
      "raan_deg": 183.2764,
      "arg_perigee_deg": 75.3933,
      "mean_anomaly_deg": 284.723,
      "mean_motion_rev_day": 15.30217881
    },
    {
      "epoch": "2026-03-28T23:27:06.947136Z",
      "apogee_km": 476.18368971219206,
      "perigee_km": 474.19759536138554,
      "latitude_deg": 2.6271508420183026e-05,
      "longitude_deg": 3.5883006854064816,
      "height_km": 476.05671546559154,
      "semi_major_axis_km": 6853.3276425367885,
      "eccentricity": 0.0001449,
      "inclination_deg": 53.16,
      "raan_deg": 181.7571,
      "arg_perigee_deg": 88.1675,
      "mean_anomaly_deg": 271.9492,
      "mean_motion_rev_day": 15.30208181
    },
    {
      "epoch": "2026-03-29T22:57:55.052352Z",
      "apogee_km": 475.8082155815664,
      "perigee_km": 474.58037274690287,
      "latitude_deg": -8.719768210844278e-06,
      "longitude_deg": 5.371877205556439,
      "height_km": 476.1376584479292,
      "semi_major_axis_km": 6853.331294164234,
      "eccentricity": 8.958e-05,
      "inclination_deg": 53.1597,
      "raan_deg": 177.2068,
      "arg_perigee_deg": 94.1859,
      "mean_anomaly_deg": 265.9244,
      "mean_motion_rev_day": 15.30206958
    },
    {
      "epoch": "2026-03-30T11:30:20.337120Z",
      "apogee_km": 475.5613360799034,
      "perigee_km": 474.7544291404256,
      "latitude_deg": -9.261220207232675e-06,
      "longitude_deg": 174.32431002117633,
      "height_km": 476.210786012283,
      "semi_major_axis_km": 6853.294882610165,
      "eccentricity": 5.887e-05,
      "inclination_deg": 53.1593,
      "raan_deg": 174.7796,
      "arg_perigee_deg": 112.4299,
      "mean_anomaly_deg": 247.6764,
      "mean_motion_rev_day": 15.30219153
    },
    {
      "epoch": "2026-03-30T22:28:43.027968Z",
      "apogee_km": 476.0741096664078,
      "perigee_km": 474.29772836580014,
      "latitude_deg": -4.0286060055166e-05,
      "longitude_deg": 7.154498381928042,
      "height_km": 475.9504360584268,
      "semi_major_axis_km": 6853.322919016104,
      "eccentricity": 0.0001296,
      "inclination_deg": 53.1589,
      "raan_deg": 172.655,
      "arg_perigee_deg": 81.3595,
      "mean_anomaly_deg": 278.7552,
      "mean_motion_rev_day": 15.30209763
    },
    {
      "epoch": "2026-03-31T14:09:14.412960Z",
      "apogee_km": 476.07206153961306,
      "perigee_km": 474.2134520695681,
      "latitude_deg": 2.8369851528090304e-06,
      "longitude_deg": 128.34649543767046,
      "height_km": 476.00361233648937,
      "semi_major_axis_km": 6853.279756804591,
      "eccentricity": 0.0001356,
      "inclination_deg": 53.1585,
      "raan_deg": 169.6215,
      "arg_perigee_deg": 87.7212,
      "mean_anomaly_deg": 272.3944,
      "mean_motion_rev_day": 15.30224219
    },
    {
      "epoch": "2026-04-01T12:06:01.622880Z",
      "apogee_km": 475.93906495821557,
      "perigee_km": 474.4258520217809,
      "latitude_deg": 1.955669896801601e-06,
      "longitude_deg": 154.00237941882853,
      "height_km": 476.4919006476385,
      "semi_major_axis_km": 6853.3194584899975,
      "eccentricity": 0.0001104,
      "inclination_deg": 53.1567,
      "raan_deg": 165.3754,
      "arg_perigee_deg": 122.9265,
      "mean_anomaly_deg": 237.1842,
      "mean_motion_rev_day": 15.30210922
    },
    {
      "epoch": "2026-04-02T11:36:49.225248Z",
      "apogee_km": 476.0284054691265,
      "perigee_km": 474.322753034402,
      "latitude_deg": -5.302042139106559e-06,
      "longitude_deg": 155.78607800955066,
      "height_km": 476.0267041499576,
      "semi_major_axis_km": 6853.312579251764,
      "eccentricity": 0.00012444,
      "inclination_deg": 53.1576,
      "raan_deg": 160.8231,
      "arg_perigee_deg": 86.8585,
      "mean_anomaly_deg": 273.2558,
      "mean_motion_rev_day": 15.30213226
    },
    {
      "epoch": "2026-04-02T21:01:08.247360Z",
      "apogee_km": 475.9173108676514,
      "perigee_km": 474.1472743027616,
      "latitude_deg": -7.011463430125102e-05,
      "longitude_deg": 12.499909906821566,
      "height_km": 475.5332673843702,
      "semi_major_axis_km": 6853.169292585206,
      "eccentricity": 0.00012914,
      "inclination_deg": 53.1583,
      "raan_deg": 159.0025,
      "arg_perigee_deg": 63.339,
      "mean_anomaly_deg": 296.7742,
      "mean_motion_rev_day": 15.30261217
    },
    {
      "epoch": "2026-04-03T11:07:37.187040Z",
      "apogee_km": 476.41961263830035,
      "perigee_km": 474.34354479043577,
      "latitude_deg": 2.0897649279728028e-06,
      "longitude_deg": 157.5704851918344,
      "height_km": 475.9293365266784,
      "semi_major_axis_km": 6853.518578714367,
      "eccentricity": 0.00015146,
      "inclination_deg": 53.1568,
      "raan_deg": 156.273,
      "arg_perigee_deg": 70.3102,
      "mean_anomaly_deg": 289.8062,
      "mean_motion_rev_day": 15.30144235
    },
    {
      "epoch": "2026-04-04T10:38:24.742752Z",
      "apogee_km": 476.0841186385205,
      "perigee_km": 474.03720556080316,
      "latitude_deg": 2.6013934661551002e-05,
      "longitude_deg": 159.35590053809372,
      "height_km": 475.61240135941426,
      "semi_major_axis_km": 6853.197662099661,
      "eccentricity": 0.00014934,
      "inclination_deg": 53.1571,
      "raan_deg": 151.7222,
      "arg_perigee_deg": 70.249,
      "mean_anomaly_deg": 289.8672,
      "mean_motion_rev_day": 15.30251715
    },
    {
      "epoch": "2026-04-05T10:09:11.756736Z",
      "apogee_km": 476.12050738941616,
      "perigee_km": 474.15046568043726,
      "latitude_deg": 5.3573418933711754e-05,
      "longitude_deg": 161.14298114797595,
      "height_km": 475.76982355537854,
      "semi_major_axis_km": 6853.272486534926,
      "eccentricity": 0.00014373,
      "inclination_deg": 53.1571,
      "raan_deg": 147.1708,
      "arg_perigee_deg": 74.4976,
      "mean_anomaly_deg": 285.6184,
      "mean_motion_rev_day": 15.30226654
    },
    {
      "epoch": "2026-04-06T03:23:46.903776Z",
      "apogee_km": 476.23550598049314,
      "perigee_km": 474.1123502549617,
      "latitude_deg": 3.427637146972097e-05,
      "longitude_deg": -101.54852942157025,
      "height_km": 475.66524028716225,
      "semi_major_axis_km": 6853.310928117727,
      "eccentricity": 0.0001549,
      "inclination_deg": 53.1574,
      "raan_deg": 143.8339,
      "arg_perigee_deg": 67.4988,
      "mean_anomaly_deg": 292.6177,
      "mean_motion_rev_day": 15.30213779
    },
    {
      "epoch": "2026-04-07T12:18:53.873856Z",
      "apogee_km": 476.2231547761794,
      "perigee_km": 474.2033353919487,
      "latitude_deg": -1.3812335866522844e-05,
      "longitude_deg": 116.9485701341562,
      "height_km": 476.0433151437352,
      "semi_major_axis_km": 6853.350245084064,
      "eccentricity": 0.00014736,
      "inclination_deg": 53.1589,
      "raan_deg": 137.462,
      "arg_perigee_deg": 86.1612,
      "mean_anomaly_deg": 273.9557,
      "mean_motion_rev_day": 15.30200611
    },
    {
      "epoch": "2026-04-07T20:09:10.011744Z",
      "apogee_km": 476.6384231979673,
      "perigee_km": 473.76961464744636,
      "latitude_deg": 1.5542463402942336e-05,
      "longitude_deg": -2.458237820475453,
      "height_km": 476.21547377019573,
      "semi_major_axis_km": 6853.341018922706,
      "eccentricity": 0.0002093,
      "inclination_deg": 53.1586,
      "raan_deg": 135.9443,
      "arg_perigee_deg": 94.5864,
      "mean_anomaly_deg": 265.5376,
      "mean_motion_rev_day": 15.30203701
    },
    {
      "epoch": "2026-04-08T11:49:41.845152Z",
      "apogee_km": 476.08953429329085,
      "perigee_km": 474.3442591899475,
      "latitude_deg": -1.8878692436050604e-05,
      "longitude_deg": 118.73392505067322,
      "height_km": 475.84217224458615,
      "semi_major_axis_km": 6853.353896741619,
      "eccentricity": 0.00012733,
      "inclination_deg": 53.1592,
      "raan_deg": 132.9129,
      "arg_perigee_deg": 71.7828,
      "mean_anomaly_deg": 288.3311,
      "mean_motion_rev_day": 15.30199388
    },
    {
      "epoch": "2026-04-09T08:12:23.253984Z",
      "apogee_km": 476.2742431130873,
      "perigee_km": 474.13695968941374,
      "latitude_deg": -2.222894602375096e-05,
      "longitude_deg": 168.2771815270603,
      "height_km": 476.22553267522153,
      "semi_major_axis_km": 6853.34260140125,
      "eccentricity": 0.00015593,
      "inclination_deg": 53.1608,
      "raan_deg": 128.9656,
      "arg_perigee_deg": 96.5638,
      "mean_anomaly_deg": 263.554,
      "mean_motion_rev_day": 15.30203171
    },
    {
      "epoch": "2026-04-10T07:43:11.222688Z",
      "apogee_km": 476.30526576056945,
      "perigee_km": 474.0498399412263,
      "latitude_deg": -3.992685010262614e-06,
      "longitude_deg": 170.0611649021391,
      "height_km": 475.9476641242708,
      "semi_major_axis_km": 6853.314552850898,
      "eccentricity": 0.00016455,
      "inclination_deg": 53.1605,
      "raan_deg": 124.4151,
      "arg_perigee_deg": 83.5074,
      "mean_anomaly_deg": 276.6114,
      "mean_motion_rev_day": 15.30212565
    },
    {
      "epoch": "2026-04-11T18:12:21.698208Z",
      "apogee_km": 476.21924969856354,
      "perigee_km": 474.20573561762103,
      "latitude_deg": -3.721732151849216e-05,
      "longitude_deg": 4.6781896672692564,
      "height_km": 476.0274240053593,
      "semi_major_axis_km": 6853.349492658092,
      "eccentricity": 0.0001469,
      "inclination_deg": 53.16,
      "raan_deg": 117.7421,
      "arg_perigee_deg": 85.2777,
      "mean_anomaly_deg": 274.8391,
      "mean_motion_rev_day": 15.30200863
    }
  ]
}